{
    "links": {
        "self": "http://www.neowsapp.com/rest/v1/neo/3566696?api_key=iIulBulltgU6a56xZRHN4H3l9WmuAYTsLGpBGhQ2"
    },
    "id": "3566696",
    "neo_reference_id": "3566696",
    "name": "(2011 KV15)",
    "designation": "2011 KV15",
    "nasa_jpl_url": "http://ssd.jpl.nasa.gov/sbdb.cgi?sstr=3566696",
    "absolute_magnitude_h": 26.2,
    "estimated_diameter": {
        "kilometers": {
            "estimated_diameter_min": 0.0152951935,
            "estimated_diameter_max": 0.0342010925
        },
        "meters": {
            "estimated_diameter_min": 15.2951935344,
            "estimated_diameter_max": 34.201092472
        },
        "miles": {
            "estimated_diameter_min": 0.0095039897,
            "estimated_diameter_max": 0.021251567
        },
        "feet": {
            "estimated_diameter_min": 50.1810827555,
            "estimated_diameter_max": 112.2083122258
        }
    },
    "is_potentially_hazardous_asteroid": false,
    "close_approach_data": [
        {
            "close_approach_date": "2011-06-05",
            "close_approach_date_full": "2011-Jun-05 22:19",
            "epoch_date_close_approach": 1307312340000,
            "relative_velocity": {
                "kilometers_per_second": "10.2137912341",
                "kilometers_per_hour": "36769.6484428576",
                "miles_per_hour": "22847.2296116189"
            },
            "miss_distance": {
                "astronomical": "0.021458482",
                "lunar": "8.347349498",
                "kilometers": "3210143.20063334",
                "miles": "1994690.489846492"
            },
            "orbiting_body": "Earth"
        }
    ],
    "orbital_data": {
        "orbit_id": "6",
        "orbit_determination_date": "2017-04-06 08:53:24",
        "first_observation_date": "2011-05-26",
        "last_observation_date": "2011-05-31",
        "data_arc_in_days": 5,
        "observations_used": 17,
        "orbit_uncertainty": "9",
        "minimum_orbit_intersection": ".0163551",
        "jupiter_tisserand_invariant": "3.145",
        "epoch_osculation": "2455709.5",
        "eccentricity": ".6119097620864684",
        "semi_major_axis": "2.550034385291357",
        "inclination": "4.091810376309901",
        "ascending_node_longitude": "66.08567163899707",
        "orbital_period": "1487.364740161925",
        "perihelion_distance": ".989643451275409",
        "perihelion_argument": "215.3467681244316",
        "aphelion_distance": "4.110425319307304",
        "perihelion_time": "2455739.500815893655",
        "mean_anomaly": "352.7386380555586",
        "mean_motion": ".2420388155502515",
        "equinox": "J2000",
        "orbit_class": {
            "orbit_class_type": "APO",
            "orbit_class_description": "Near-Earth asteroid orbits which cross the Earth’s orbit similar to that of 1862 Apollo",
            "orbit_class_range": "a (semi-major axis) > 1.0 AU; q (perihelion) < 1.017 AU"
        }
    },
    "is_sentry_object": false
}